{
  "norad_id": 65585,
  "name": "PRAETORIAN SDA_601",
  "history": [
    {
      "epoch": "2026-03-28T16:50:20.293728Z",
      "apogee_km": 956.349045289845,
      "perigee_km": 946.7430558710766,
      "latitude_deg": -2.1417142756694813e-06,
      "longitude_deg": 6.741354680688215,
      "height_km": 952.4096131494132,
      "semi_major_axis_km": 7329.683050580461,
      "eccentricity": 0.00065528,
      "inclination_deg": 81.2998,
      "raan_deg": 85.4442,
      "arg_perigee_deg": 65.5339,
      "mean_anomaly_deg": 294.65,
      "mean_motion_rev_day": 13.83486638
    },
    {
      "epoch": "2026-03-29T01:31:02.708256Z",
      "apogee_km": 956.3036649825444,
      "perigee_km": 946.7824106134449,
      "latitude_deg": -4.468644246850933e-05,
      "longitude_deg": -124.1262902947386,
      "height_km": 952.3618607447121,
      "semi_major_axis_km": 7329.680037797994,
      "eccentricity": 0.0006495,
      "inclination_deg": 81.2995,
      "raan_deg": 85.1097,
      "arg_perigee_deg": 64.7048,
      "mean_anomaly_deg": 295.478,
      "mean_motion_rev_day": 13.83487491
    },
    {
      "epoch": "2026-03-30T05:17:18.511296Z",
      "apogee_km": 956.2735343048889,
      "perigee_km": 946.8110649226746,
      "latitude_deg": -2.116861755321065e-06,
      "longitude_deg": 177.0958541565515,
      "height_km": 952.1440634248753,
      "semi_major_axis_km": 7329.679299613782,
      "eccentricity": 0.00064549,
      "inclination_deg": 81.2996,
      "raan_deg": 84.0382,
      "arg_perigee_deg": 61.582,
      "mean_anomaly_deg": 298.5986,
      "mean_motion_rev_day": 13.834877
    },
    {
      "epoch": "2026-03-30T10:29:43.974528Z",
      "apogee_km": 956.2565094651409,
      "perigee_km": 946.8259988297896,
      "latitude_deg": -7.395903997785131e-05,
      "longitude_deg": 98.57559977638036,
      "height_km": 952.0469738606419,
      "semi_major_axis_km": 7329.678254147465,
      "eccentricity": 0.00064331,
      "inclination_deg": 81.2996,
      "raan_deg": 83.8379,
      "arg_perigee_deg": 60.1369,
      "mean_anomaly_deg": 300.0425,
      "mean_motion_rev_day": 13.83487996
    },
    {
      "epoch": "2026-03-30T17:26:17.919456Z",
      "apogee_km": 956.2456438800491,
      "perigee_km": 946.8401986051103,
      "latitude_deg": 5.5330499628735364e-05,
      "longitude_deg": -6.119346530865196,
      "height_km": 952.0929688212913,
      "semi_major_axis_km": 7329.679921242579,
      "eccentricity": 0.0006416,
      "inclination_deg": 81.2996,
      "raan_deg": 83.5695,
      "arg_perigee_deg": 60.6713,
      "mean_anomaly_deg": 299.5084,
      "mean_motion_rev_day": 13.83487524
    },
    {
      "epoch": "2026-03-31T09:03:34.312608Z",
      "apogee_km": 956.2480585181856,
      "perigee_km": 946.8354316673131,
      "latitude_deg": 3.7391679522163038e-06,
      "longitude_deg": 118.31850093887658,
      "height_km": 951.9912288612319,
      "semi_major_axis_km": 7329.6787450927495,
      "eccentricity": 0.00064209,
      "inclination_deg": 81.2996,
      "raan_deg": 82.9672,
      "arg_perigee_deg": 59.2797,
      "mean_anomaly_deg": 300.8991,
      "mean_motion_rev_day": 13.83487857
    },
    {
      "epoch": "2026-04-01T16:18:07.097184Z",
      "apogee_km": 956.3361207849239,
      "perigee_km": 946.7576898574489,
      "latitude_deg": -3.800292812235202e-05,
      "longitude_deg": 7.194612471399631,
      "height_km": 951.7540836667606,
      "semi_major_axis_km": 7329.683905321186,
      "eccentricity": 0.0006534,
      "inclination_deg": 81.3004,
      "raan_deg": 81.763,
      "arg_perigee_deg": 56.4523,
      "mean_anomaly_deg": 303.7256,
      "mean_motion_rev_day": 13.83486396
    },
    {
      "epoch": "2026-04-02T16:36:05.789088Z",
      "apogee_km": 956.1636771753792,
      "perigee_km": 946.9165565247613,
      "latitude_deg": -4.309106737654931e-05,
      "longitude_deg": 0.7649123588864993,
      "height_km": 951.6276990131561,
      "semi_major_axis_km": 7329.67711685007,
      "eccentricity": 0.0006308,
      "inclination_deg": 81.3,
      "raan_deg": 80.8258,
      "arg_perigee_deg": 53.2388,
      "mean_anomaly_deg": 306.9346,
      "mean_motion_rev_day": 13.83488318
    },
    {
      "epoch": "2026-04-02T21:48:31.288608Z",
      "apogee_km": 956.2147075578005,
      "perigee_km": 946.8686342845094,
      "latitude_deg": -3.513628607124611e-05,
      "longitude_deg": -77.75588158682396,
      "height_km": 951.5803063876898,
      "semi_major_axis_km": 7329.678670921155,
      "eccentricity": 0.00063755,
      "inclination_deg": 81.3003,
      "raan_deg": 80.6251,
      "arg_perigee_deg": 52.9435,
      "mean_anomaly_deg": 307.2303,
      "mean_motion_rev_day": 13.83487878
    },
    {
      "epoch": "2026-04-03T09:57:30.672576Z",
      "apogee_km": 956.2063578697826,
      "perigee_km": 946.8734802487452,
      "latitude_deg": 3.3540063356721187e-06,
      "longitude_deg": 99.02951536290306,
      "height_km": 951.5117252559588,
      "semi_major_axis_km": 7329.676919059264,
      "eccentricity": 0.00063665,
      "inclination_deg": 81.3003,
      "raan_deg": 80.1569,
      "arg_perigee_deg": 51.8436,
      "mean_anomaly_deg": 308.3293,
      "mean_motion_rev_day": 13.83488374
    },
    {
      "epoch": "2026-04-04T18:56:16.067904Z",
      "apogee_km": 956.5669171123864,
      "perigee_km": 946.9867197516951,
      "latitude_deg": -2.4747418872939608e-05,
      "longitude_deg": -38.285147666386386,
      "height_km": 951.5402519734134,
      "semi_major_axis_km": 7329.91381843204,
      "eccentricity": 0.0006535,
      "inclination_deg": 81.3011,
      "raan_deg": 78.8858,
      "arg_perigee_deg": 49.8083,
      "mean_anomaly_deg": 310.3644,
      "mean_motion_rev_day": 13.83421304
    },
    {
      "epoch": "2026-04-05T10:33:35.117856Z",
      "apogee_km": 956.547887678782,
      "perigee_km": 947.0030222781579,
      "latitude_deg": 4.229655099617191e-05,
      "longitude_deg": 86.14231571855423,
      "height_km": 951.4295974342549,
      "semi_major_axis_km": 7329.912454978469,
      "eccentricity": 0.00065109,
      "inclination_deg": 81.301,
      "raan_deg": 78.2842,
      "arg_perigee_deg": 47.8786,
      "mean_anomaly_deg": 312.2923,
      "mean_motion_rev_day": 13.8342169
    },
    {
      "epoch": "2026-04-06T00:26:45.384576Z",
      "apogee_km": 956.546271801807,
      "perigee_km": 947.0024340238597,
      "latitude_deg": -3.648607666834299e-05,
      "longitude_deg": -123.25626068345198,
      "height_km": 951.3520460109261,
      "semi_major_axis_km": 7329.911352912833,
      "eccentricity": 0.00065102,
      "inclination_deg": 81.3014,
      "raan_deg": 77.7487,
      "arg_perigee_deg": 46.6192,
      "mean_anomaly_deg": 313.5505,
      "mean_motion_rev_day": 13.83422002
    },
    {
      "epoch": "2026-04-07T21:34:33.796128Z",
      "apogee_km": 956.5299415070476,
      "perigee_km": 947.020113642473,
      "latitude_deg": 5.014960943471999e-05,
      "longitude_deg": -83.80009530556944,
      "height_km": 951.0860207574664,
      "semi_major_axis_km": 7329.91202757476,
      "eccentricity": 0.0006487,
      "inclination_deg": 81.3018,
      "raan_deg": 76.01,
      "arg_perigee_deg": 41.7926,
      "mean_anomaly_deg": 318.3725,
      "mean_motion_rev_day": 13.83421811
    },
    {
      "epoch": "2026-04-08T14:56:01.591296Z",
      "apogee_km": 956.4599750979596,
      "perigee_km": 947.0894159863801,
      "latitude_deg": 4.4520072985728136e-06,
      "longitude_deg": 14.4518260557345,
      "height_km": 951.0530333491461,
      "semi_major_axis_km": 7329.91169554217,
      "eccentricity": 0.0006392,
      "inclination_deg": 81.302,
      "raan_deg": 75.3406,
      "arg_perigee_deg": 40.2083,
      "mean_anomaly_deg": 319.9545,
      "mean_motion_rev_day": 13.83421905
    },
    {
      "epoch": "2026-04-09T15:14:04.587648Z",
      "apogee_km": 956.5182895832786,
      "perigee_km": 947.0377774789104,
      "latitude_deg": -1.2798132068082043e-05,
      "longitude_deg": 8.004635896549225,
      "height_km": 950.8936127189604,
      "semi_major_axis_km": 7329.915033531094,
      "eccentricity": 0.0006467,
      "inclination_deg": 81.3019,
      "raan_deg": 74.4039,
      "arg_perigee_deg": 37.8853,
      "mean_anomaly_deg": 322.2757,
      "mean_motion_rev_day": 13.8342096
    },
    {
      "epoch": "2026-04-10T10:19:41.160864Z",
      "apogee_km": 956.4601553584462,
      "perigee_km": 947.0895960165681,
      "latitude_deg": 5.932436897454673e-05,
      "longitude_deg": 80.08201450835948,
      "height_km": 950.82240210008,
      "semi_major_axis_km": 7329.911875687507,
      "eccentricity": 0.0006392,
      "inclination_deg": 81.3013,
      "raan_deg": 73.6678,
      "arg_perigee_deg": 35.5974,
      "mean_anomaly_deg": 324.5608,
      "mean_motion_rev_day": 13.83421854
    }
  ]
}